[{"OBJECT_NAME":"STARLINK-30120","OBJECT_ID":"2023-079B","EPOCH":"2026-03-09T22:00:01.999584","MEAN_MOTION":15.17882096,"ECCENTRICITY":0.0002013,"INCLINATION":42.9994,"RA_OF_ASC_NODE":105.6157,"ARG_OF_PERICENTER":280.1229,"MEAN_ANOMALY":118.6442,"EPHEMERIS_TYPE":0,"CLASSIFICATION_TYPE":"U","NORAD_CAT_ID":56824,"ELEMENT_SET_NO":999,"REV_AT_EPOCH":578,"BSTAR":0.059515571,"MEAN_MOTION_DOT":0.01333909,"MEAN_MOTION_DDOT":0},{"OBJECT_NAME":"COSMOS 2251 DEB","OBJECT_ID":"1993-036DE","EPOCH":"2026-03-09T20:53:28.838688","MEAN_MOTION":15.29467846,"ECCENTRICITY":0.00306247,"INCLINATION":73.7716,"RA_OF_ASC_NODE":223.0836,"ARG_OF_PERICENTER":342.1726,"MEAN_ANOMALY":17.8397,"EPHEMERIS_TYPE":0,"CLASSIFICATION_TYPE":"U","NORAD_CAT_ID":33901,"ELEMENT_SET_NO":999,"REV_AT_EPOCH":90839,"BSTAR":0.0037194515,"MEAN_MOTION_DOT":0.00109321,"MEAN_MOTION_DDOT":0}]
